[{"OBJECT_NAME":"ONEWEB-0385","OBJECT_ID":"2021-090AJ","EPOCH":"2026-03-09T16:03:33.684768","MEAN_MOTION":13.20771158,"ECCENTRICITY":0.00014182,"INCLINATION":87.9171,"RA_OF_ASC_NODE":294.3107,"ARG_OF_PERICENTER":81.2211,"MEAN_ANOMALY":278.9083,"EPHEMERIS_TYPE":0,"CLASSIFICATION_TYPE":"U","NORAD_CAT_ID":49311,"ELEMENT_SET_NO":999,"REV_AT_EPOCH":21666,"BSTAR":-5.0970124e-5,"MEAN_MOTION_DOT":-8.0e-8,"MEAN_MOTION_DDOT":0},{"OBJECT_NAME":"DELTA 1 DEB","OBJECT_ID":"1975-052KX","EPOCH":"2026-03-09T02:25:31.446624","MEAN_MOTION":13.22315516,"ECCENTRICITY":0.01169232,"INCLINATION":99.7307,"RA_OF_ASC_NODE":298.2155,"ARG_OF_PERICENTER":323.547,"MEAN_ANOMALY":192,"EPHEMERIS_TYPE":0,"CLASSIFICATION_TYPE":"U","NORAD_CAT_ID":26843,"ELEMENT_SET_NO":999,"REV_AT_EPOCH":52565,"BSTAR":0.00030959781,"MEAN_MOTION_DOT":9.2e-7,"MEAN_MOTION_DDOT":0}]
